{
  "type": "FeatureCollection",
  "features": [
    {
      "type": "Feature",
      "properties": {
        "norad_id": 43719,
        "name": "HYSIS",
        "group": "resource",
        "lat": -59.51483922883343,
        "lon": -142.08457832350337,
        "alt_km": 641.6077225410272,
        "timestamp": "2025-12-14T18:52:55.155915+00:00",
        "meta_object_name": "HYSIS",
        "meta_object_id": "2018-096A",
        "meta_epoch": "2025-12-13T23:55:58.847232",
        "meta_mean_motion": 14.7865056,
        "meta_eccentricity": 0.00012796,
        "meta_inclination": 98.0097,
        "meta_ra_of_asc_node": 50.9683,
        "meta_arg_of_pericenter": 57.0546,
        "meta_mean_anomaly": 303.0788,
        "meta_ephemeris_type": 0,
        "meta_classification_type": "U",
        "meta_norad_cat_id": 43719,
        "meta_element_set_no": 999,
        "meta_rev_at_epoch": 38005,
        "meta_bstar": 0.00025482381,
        "meta_mean_motion_dot": 1.815e-05,
        "meta_mean_motion_ddot": 0,
        "tle_line1": "1 43719U 18096A   25347.99720888  .00001815  00000+0  25482-3 0  9998",
        "tle_line2": "2 43719  98.0097  50.9683 0001279  57.0546 303.0788 14.78650560380053"
      },
      "geometry": {
        "type": "Point",
        "coordinates": [
          -142.08457832350337,
          -59.51483922883343
        ]
      }
    },
    {
      "type": "Feature",
      "properties": {
        "norad_id": 43783,
        "name": "KAZSTSAT",
        "group": "resource",
        "lat": -82.4500015172613,
        "lon": 122.74836246610175,
        "alt_km": 573.797966363355,
        "timestamp": "2025-12-14T18:52:55.155925+00:00",
        "meta_object_name": "KAZSTSAT",
        "meta_object_id": "2018-099AB",
        "meta_epoch": "2025-12-14T00:04:02.844480",
        "meta_mean_motion": 14.99357381,
        "meta_eccentricity": 0.00058952,
        "meta_inclination": 97.4558,
        "meta_ra_of_asc_node": 23.134,
        "meta_arg_of_pericenter": 324.8582,
        "meta_mean_anomaly": 35.2252,
        "meta_ephemeris_type": 0,
        "meta_classification_type": "U",
        "meta_norad_cat_id": 43783,
        "meta_element_set_no": 999,
        "meta_rev_at_epoch": 38355,
        "meta_bstar": 0.00013132953,
        "meta_mean_motion_dot": 1.55e-05,
        "meta_mean_motion_ddot": 0,
        "tle_line1": "1 43783U 18099AB  25348.00281070  .00001550  00000+0  13133-3 0  9996",
        "tle_line2": "2 43783  97.4558  23.1340 0005895 324.8582  35.2252 14.99357381383550"
      },
      "geometry": {
        "type": "Point",
        "coordinates": [
          122.74836246610175,
          -82.4500015172613
        ]
      }
    },
    {
      "type": "Feature",
      "properties": {
        "norad_id": 43831,
        "name": "SAUDISAT 5A",
        "group": "resource",
        "lat": 24.30315121271736,
        "lon": -127.72658090658621,
        "alt_km": 487.5876867174529,
        "timestamp": "2025-12-14T18:52:55.155936+00:00",
        "meta_object_name": "SAUDISAT 5A",
        "meta_object_id": "2018-102A",
        "meta_epoch": "2025-12-13T23:18:55.401984",
        "meta_mean_motion": 15.25678651,
        "meta_eccentricity": 0.0011721,
        "meta_inclination": 97.3356,
        "meta_ra_of_asc_node": 48.1387,
        "meta_arg_of_pericenter": 72.4791,
        "meta_mean_anomaly": 287.7727,
        "meta_ephemeris_type": 0,
        "meta_classification_type": "U",
        "meta_norad_cat_id": 43831,
        "meta_element_set_no": 999,
        "meta_rev_at_epoch": 38741,
        "meta_bstar": 0.000300692,
        "meta_mean_motion_dot": 7.601e-05,
        "meta_mean_motion_ddot": 0,
        "tle_line1": "1 43831U 18102A   25347.97147456  .00007601  00000+0  30069-3 0  9999",
        "tle_line2": "2 43831  97.3356  48.1387 0011721  72.4791 287.7727 15.25678651387416"
      },
      "geometry": {
        "type": "Point",
        "coordinates": [
          -127.72658090658621,
          24.30315121271736
        ]
      }
    },
    {
      "type": "Feature",
      "properties": {
        "norad_id": 43833,
        "name": "SAUDISAT 5B",
        "group": "resource",
        "lat": -30.005436392331156,
        "lon": -132.59141102390657,
        "alt_km": 500.0811150266163,
        "timestamp": "2025-12-14T18:52:55.155947+00:00",
        "meta_object_name": "SAUDISAT 5B",
        "meta_object_id": "2018-102C",
        "meta_epoch": "2025-12-14T00:39:14.253120",
        "meta_mean_motion": 15.26030938,
        "meta_eccentricity": 0.00124445,
        "meta_inclination": 97.345,
        "meta_ra_of_asc_node": 50.9342,
        "meta_arg_of_pericenter": 74.5042,
        "meta_mean_anomaly": 285.7569,
        "meta_ephemeris_type": 0,
        "meta_classification_type": "U",
        "meta_norad_cat_id": 43833,
        "meta_element_set_no": 999,
        "meta_rev_at_epoch": 38753,
        "meta_bstar": 0.00027834145,
        "meta_mean_motion_dot": 7.107e-05,
        "meta_mean_motion_ddot": 0,
        "tle_line1": "1 43833U 18102C   25348.02724830  .00007107  00000+0  27834-3 0  9992",
        "tle_line2": "2 43833  97.3450  50.9342 0012444  74.5042 285.7569 15.26030938387536"
      },
      "geometry": {
        "type": "Point",
        "coordinates": [
          -132.59141102390657,
          -30.005436392331156
        ]
      }
    },
    {
      "type": "Feature",
      "properties": {
        "norad_id": 44622,
        "name": "GAOFEN-10R",
        "group": "resource",
        "lat": -15.329966779352684,
        "lon": 114.08378130581174,
        "alt_km": 630.3823024400708,
        "timestamp": "2025-12-14T18:52:55.155957+00:00",
        "meta_object_name": "GAOFEN-10R",
        "meta_object_id": "2019-066A",
        "meta_epoch": "2025-12-14T00:11:20.547744",
        "meta_mean_motion": 14.82798855,
        "meta_eccentricity": 0.00077958,
        "meta_inclination": 98.0275,
        "meta_ra_of_asc_node": 295.5191,
        "meta_arg_of_pericenter": 38.3889,
        "meta_mean_anomaly": 321.7877,
        "meta_ephemeris_type": 0,
        "meta_classification_type": "U",
        "meta_norad_cat_id": 44622,
        "meta_element_set_no": 999,
        "meta_rev_at_epoch": 33493,
        "meta_bstar": 0.00030547599,
        "meta_mean_motion_dot": 2.417e-05,
        "meta_mean_motion_ddot": 0,
        "tle_line1": "1 44622U 19066A   25348.00787671  .00002417  00000+0  30548-3 0  9994",
        "tle_line2": "2 44622  98.0275 295.5191 0007795  38.3889 321.7877 14.82798855334934"
      },
      "geometry": {
        "type": "Point",
        "coordinates": [
          114.08378130581174,
          -15.329966779352684
        ]
      }
    },
    {
      "type": "Feature",
      "properties": {
        "norad_id": 44804,
        "name": "CARTOSAT-3",
        "group": "resource",
        "lat": -81.62621324978242,
        "lon": 165.47129571435752,
        "alt_km": 525.335425508325,
        "timestamp": "2025-12-14T18:52:55.155967+00:00",
        "meta_object_name": "CARTOSAT-3",
        "meta_object_id": "2019-081A",
        "meta_epoch": "2025-12-13T22:44:40.058304",
        "meta_mean_motion": 15.19166644,
        "meta_eccentricity": 0.00142037,
        "meta_inclination": 97.4585,
        "meta_ra_of_asc_node": 47.5155,
        "meta_arg_of_pericenter": 79.3057,
        "meta_mean_anomaly": 280.9776,
        "meta_ephemeris_type": 0,
        "meta_classification_type": "U",
        "meta_norad_cat_id": 44804,
        "meta_element_set_no": 999,
        "meta_rev_at_epoch": 33534,
        "meta_bstar": 0.00028089385,
        "meta_mean_motion_dot": 5.853e-05,
        "meta_mean_motion_ddot": 0,
        "tle_line1": "1 44804U 19081A   25347.94768586  .00005853  00000+0  28089-3 0  9993",
        "tle_line2": "2 44804  97.4585  47.5155 0014203  79.3057 280.9776 15.19166644335348"
      },
      "geometry": {
        "type": "Point",
        "coordinates": [
          165.47129571435752,
          -81.62621324978242
        ]
      }
    },
    {
      "type": "Feature",
      "properties": {
        "norad_id": 44819,
        "name": "GAOFEN-12 01",
        "group": "resource",
        "lat": 81.46544613999039,
        "lon": -71.17987254916784,
        "alt_km": 620.5062198280402,
        "timestamp": "2025-12-14T18:52:55.155978+00:00",
        "meta_object_name": "GAOFEN-12 01",
        "meta_object_id": "2019-082A",
        "meta_epoch": "2025-12-14T00:39:05.823936",
        "meta_mean_motion": 14.80659159,
        "meta_eccentricity": 0.00013965,
        "meta_inclination": 97.8126,
        "meta_ra_of_asc_node": 354.2744,
        "meta_arg_of_pericenter": 225.4832,
        "meta_mean_anomaly": 134.6266,
        "meta_ephemeris_type": 0,
        "meta_classification_type": "U",
        "meta_norad_cat_id": 44819,
        "meta_element_set_no": 999,
        "meta_rev_at_epoch": 32669,
        "meta_bstar": 9.9662482e-05,
        "meta_mean_motion_dot": 7.15e-06,
        "meta_mean_motion_ddot": 0,
        "tle_line1": "1 44819U 19082A   25348.02715074  .00000715  00000+0  99662-4 0  9992",
        "tle_line2": "2 44819  97.8126 354.2744 0001396 225.4832 134.6266 14.80659159326697"
      },
      "geometry": {
        "type": "Point",
        "coordinates": [
          -71.17987254916784,
          81.46544613999039
        ]
      }
    }
  ]
}